{"type": "FeatureCollection", "features": [ {"type": "Feature", "properties": {"norad_id": 66650, "name": "BEE-1000", "group": "last-30-days", "lat": 27.812420906777614, "lon": -86.02074005216832, "alt_km": 598.0566386052324, "timestamp": "2025-12-16T23:36:34.923842+00:00", "meta": {"OBJECT_NAME": "BEE-1000", "OBJECT_ID": "2025-274A", "EPOCH": "2025-12-16T07:23:05.044128", "MEAN_MOTION": 14.91676067, "ECCENTRICITY": 0.00105133, "INCLINATION": 97.7394, "RA_OF_ASC_NODE": 277.4297, "ARG_OF_PERICENTER": 238.1589, "MEAN_ANOMALY": 121.8606, "EPHEMERIS_TYPE": 0, "CLASSIFICATION_TYPE": "U", "NORAD_CAT_ID": 66650, "ELEMENT_SET_NO": 999, "REV_AT_EPOCH": 293, "BSTAR": 0.00010484962, "MEAN_MOTION_DOT": 9.99e-06, "MEAN_MOTION_DDOT": 0}, "tle": {"line1": "1 66650U 25274A   25350.30769727  .00000999  00000+0  10485-3 0  9996", "line2": "2 66650  97.7394 277.4297 0010513 238.1589 121.8606 14.91676067  2933"}}, "geometry": {"type": "Point", "coordinates": [-86.02074005216832, 27.812420906777614]}}, {"type": "Feature", "properties": {"norad_id": 66651, "name": "2025-274B", "group": "last-30-days", "lat": 34.92027971638936, "lon": -87.35289651778314, "alt_km": 597.0257513885081, "timestamp": "2025-12-16T23:36:34.923852+00:00", "meta": {"OBJECT_NAME": "2025-274B", "OBJECT_ID": "2025-274B", "EPOCH": "2025-12-16T07:21:14.994720", "MEAN_MOTION": 14.91827137, "ECCENTRICITY": 0.00107558, "INCLINATION": 97.7391, "RA_OF_ASC_NODE": 277.4301, "ARG_OF_PERICENTER": 237.0542, "MEAN_ANOMALY": 122.9643, "EPHEMERIS_TYPE": 0, "CLASSIFICATION_TYPE": "U", "NORAD_CAT_ID": 66651, "ELEMENT_SET_NO": 999, "REV_AT_EPOCH": 293, "BSTAR": 0.00023007378, "MEAN_MOTION_DOT": 2.268e-05, "MEAN_MOTION_DDOT": 0}, "tle": {"line1": "1 66651U 25274B   25350.30642355  .00002268  00000+0  23007-3 0  9999", "line2": "2 66651  97.7391 277.4301 0010755 237.0542 122.9643 14.91827137  2931"}}, "geometry": {"type": "Point", "coordinates": [-87.35289651778314, 34.92027971638936]}}, {"type": "Feature", "properties": {"norad_id": 66652, "name": "2025-274C", "group": "last-30-days", "lat": 43.9892624192962, "lon": -89.4436756168507, "alt_km": 595.142848022876, "timestamp": "2025-12-16T23:36:34.923862+00:00", "meta": {"OBJECT_NAME": "2025-274C", "OBJECT_ID": "2025-274C", "EPOCH": "2025-12-16T07:18:50.584896", "MEAN_MOTION": 14.91924286, "ECCENTRICITY": 0.00103504, "INCLINATION": 97.7396, "RA_OF_ASC_NODE": 277.4335, "ARG_OF_PERICENTER": 244.0889, "MEAN_ANOMALY": 115.9263, "EPHEMERIS_TYPE": 0, "CLASSIFICATION_TYPE": "U", "NORAD_CAT_ID": 66652, "ELEMENT_SET_NO": 999, "REV_AT_EPOCH": 293, "BSTAR": 0.00019884078, "MEAN_MOTION_DOT": 1.957e-05, "MEAN_MOTION_DDOT": 0}, "tle": {"line1": "1 66652U 25274C   25350.30475214  .00001957  00000+0  19884-3 0  9990", "line2": "2 66652  97.7396 277.4335 0010350 244.0889 115.9263 14.91924286  2930"}}, "geometry": {"type": "Point", "coordinates": [-89.4436756168507, 43.9892624192962]}}, {"type": "Feature", "properties": {"norad_id": 66653, "name": "2025-274D", "group": "last-30-days", "lat": 44.42688307010392, "lon": -89.56028405583149, "alt_km": 595.8444188438343, "timestamp": "2025-12-16T23:36:34.923872+00:00", "meta": {"OBJECT_NAME": "2025-274D", "OBJECT_ID": "2025-274D", "EPOCH": "2025-12-16T07:18:43.297056", "MEAN_MOTION": 14.91926024, "ECCENTRICITY": 0.00112759, "INCLINATION": 97.7392, "RA_OF_ASC_NODE": 277.4333, "ARG_OF_PERICENTER": 240.2053, "MEAN_ANOMALY": 119.8046, "EPHEMERIS_TYPE": 0, "CLASSIFICATION_TYPE": "U", "NORAD_CAT_ID": 66653, "ELEMENT_SET_NO": 999, "REV_AT_EPOCH": 293, "BSTAR": 0.00016552014, "MEAN_MOTION_DOT": 1.62e-05, "MEAN_MOTION_DDOT": 0}, "tle": {"line1": "1 66653U 25274D   25350.30466779  .00001620  00000+0  16552-3 0  9993", "line2": "2 66653  97.7392 277.4333 0011275 240.2053 119.8046 14.91926024  2937"}}, "geometry": {"type": "Point", "coordinates": [-89.56028405583149, 44.42688307010392]}}, {"type": "Feature", "properties": {"norad_id": 66654, "name": "JACK E", "group": "last-30-days", "lat": 56.54086418778429, "lon": -93.7699835366702, "alt_km": 594.1743317853434, "timestamp": "2025-12-16T23:36:34.923885+00:00", "meta": {"OBJECT_NAME": "JACK E", "OBJECT_ID": "2025-274E", "EPOCH": "2025-12-16T07:15:30.605184", "MEAN_MOTION": 14.92105997, "ECCENTRICITY": 0.00117828, "INCLINATION": 97.7395, "RA_OF_ASC_NODE": 277.4367, "ARG_OF_PERICENTER": 241.9375, "MEAN_ANOMALY": 118.0653, "EPHEMERIS_TYPE": 0, "CLASSIFICATION_TYPE": "U", "NORAD_CAT_ID": 66654, "ELEMENT_SET_NO": 999, "REV_AT_EPOCH": 293, "BSTAR": 0.00018785901, "MEAN_MOTION_DOT": 1.855e-05, "MEAN_MOTION_DDOT": 0}, "tle": {"line1": "1 66654U 25274E   25350.30243756  .00001855  00000+0  18786-3 0  9993", "line2": "2 66654  97.7395 277.4367 0011782 241.9375 118.0653 14.92105997  2930"}}, "geometry": {"type": "Point", "coordinates": [-93.7699835366702, 56.54086418778429]}}, {"type": "Feature", "properties": {"norad_id": 66655, "name": "2025-274F", "group": "last-30-days", "lat": 45.77992129955893, "lon": -89.92631129984724, "alt_km": 587.4824863178656, "timestamp": "2025-12-16T23:36:34.923895+00:00", "meta": {"OBJECT_NAME": "2025-274F", "OBJECT_ID": "2025-274F", "EPOCH": "2025-12-16T07:17:53.374272", "MEAN_MOTION": 14.91167059, "ECCENTRICITY": 0.00052872, "INCLINATION": 97.7321, "RA_OF_ASC_NODE": 277.4335, "ARG_OF_PERICENTER": 9.833, "MEAN_ANOMALY": 350.2992, "EPHEMERIS_TYPE": 0, "CLASSIFICATION_TYPE": "U", "NORAD_CAT_ID": 66655, "ELEMENT_SET_NO": 999, "REV_AT_EPOCH": 293, "BSTAR": 2.278286e-06, "MEAN_MOTION_DOT": -3.2e-07, "MEAN_MOTION_DDOT": 0}, "tle": {"line1": "1 66655U 25274F   25350.30408998 -.00000032  00000+0  22783-5 0  9996", "line2": "2 66655  97.7321 277.4335 0005287   9.8330 350.2992 14.91167059  2932"}}, "geometry": {"type": "Point", "coordinates": [-89.92631129984724, 45.77992129955893]}}, {"type": "Feature", "properties": {"norad_id": 66656, "name": "2025-274G", "group": "last-30-days", "lat": 69.43771811263585, "lon": -103.14593646469564, "alt_km": 592.5234340574043, "timestamp": "2025-12-16T23:36:34.923906+00:00", "meta": {"OBJECT_NAME": "2025-274G", "OBJECT_ID": "2025-274G", "EPOCH": "2025-12-16T07:12:00.033696", "MEAN_MOTION": 14.92299008, "ECCENTRICITY": 0.00123567, "INCLINATION": 97.7397, "RA_OF_ASC_NODE": 277.4395, "ARG_OF_PERICENTER": 243.5933, "MEAN_ANOMALY": 116.4018, "EPHEMERIS_TYPE": 0, "CLASSIFICATION_TYPE": "U", "NORAD_CAT_ID": 66656, "ELEMENT_SET_NO": 999, "REV_AT_EPOCH": 293, "BSTAR": 0.00022118446, "MEAN_MOTION_DOT": 2.205e-05, "MEAN_MOTION_DDOT": 0}, "tle": {"line1": "1 66656U 25274G   25350.30000039  .00002205  00000+0  22118-3 0  9994", "line2": "2 66656  97.7397 277.4395 0012356 243.5933 116.4018 14.92299008  2935"}}, "geometry": {"type": "Point", "coordinates": [-103.14593646469564, 69.43771811263585]}}, {"type": "Feature", "properties": {"norad_id": 66657, "name": "SPIRONE", "group": "last-30-days", "lat": 80.21411689812638, "lon": -133.9289584411055, "alt_km": 590.1638824667889, "timestamp": "2025-12-16T23:36:34.923918+00:00", "meta": {"OBJECT_NAME": "SPIRONE", "OBJECT_ID": "2025-274H", "EPOCH": "2025-12-16T05:32:04.371360", "MEAN_MOTION": 14.92477724, "ECCENTRICITY": 0.00105781, "INCLINATION": 97.7393, "RA_OF_ASC_NODE": 277.3758, "ARG_OF_PERICENTER": 262.6845, "MEAN_ANOMALY": 97.3172, "EPHEMERIS_TYPE": 0, "CLASSIFICATION_TYPE": "U", "NORAD_CAT_ID": 66657, "ELEMENT_SET_NO": 999, "REV_AT_EPOCH": 292, "BSTAR": 0.00023946636, "MEAN_MOTION_DOT": 2.402e-05, "MEAN_MOTION_DDOT": 0}, "tle": {"line1": "1 66657U 25274H   25350.23060615  .00002402  00000+0  23947-3 0  9993", "line2": "2 66657  97.7393 277.3758 0010578 262.6845  97.3172 14.92477724  2922"}}, "geometry": {"type": "Point", "coordinates": [-133.9289584411055, 80.21411689812638]}}, {"type": "Feature", "properties": {"norad_id": 66658, "name": "2025-274J", "group": "last-30-days", "lat": 79.80946067491331, "lon": 147.28281624691775, "alt_km": 589.8295312940099, "timestamp": "2025-12-16T23:36:34.923929+00:00", "meta": {"OBJECT_NAME": "2025-274J", "OBJECT_ID": "2025-274J", "EPOCH": "2025-12-16T07:05:20.226336", "MEAN_MOTION": 14.92647627, "ECCENTRICITY": 0.0011108, "INCLINATION": 97.7393, "RA_OF_ASC_NODE": 277.4449, "ARG_OF_PERICENTER": 265.6199, "MEAN_ANOMALY": 94.3752, "EPHEMERIS_TYPE": 0, "CLASSIFICATION_TYPE": "U", "NORAD_CAT_ID": 66658, "ELEMENT_SET_NO": 999, "REV_AT_EPOCH": 293, "BSTAR": 0.00025187204, "MEAN_MOTION_DOT": 2.541e-05, "MEAN_MOTION_DDOT": 0}, "tle": {"line1": "1 66658U 25274J   25350.29537299  .00002541  00000+0  25187-3 0  9999", "line2": "2 66658  97.7393 277.4449 0011108 265.6199  94.3752 14.92647627  2939"}}, "geometry": {"type": "Point", "coordinates": [147.28281624691775, 79.80946067491331]}}, {"type": "Feature", "properties": {"norad_id": 66659, "name": "JACK K", "group": "last-30-days", "lat": 68.44914763597694, "lon": 118.27050180988962, "alt_km": 589.9279234233163, "timestamp": "2025-12-16T23:36:34.923939+00:00", "meta": {"OBJECT_NAME": "JACK K", "OBJECT_ID": "2025-274K", "EPOCH": "2025-12-16T07:01:49.716192", "MEAN_MOTION": 14.92832095, "ECCENTRICITY": 0.00118751, "INCLINATION": 97.7394, "RA_OF_ASC_NODE": 277.4488, "ARG_OF_PERICENTER": 267.037, "MEAN_ANOMALY": 92.949, "EPHEMERIS_TYPE": 0, "CLASSIFICATION_TYPE": "U", "NORAD_CAT_ID": 66659, "ELEMENT_SET_NO": 999, "REV_AT_EPOCH": 293, "BSTAR": 0.00025722292, "MEAN_MOTION_DOT": 2.609e-05, "MEAN_MOTION_DDOT": 0}, "tle": {"line1": "1 66659U 25274K   25350.29293653  .00002609  00000+0  25722-3 0  9993", "line2": "2 66659  97.7394 277.4488 0011875 267.0370  92.9490 14.92832095  2930"}}, "geometry": {"type": "Point", "coordinates": [118.27050180988962, 68.44914763597694]}}]}